NORAD_CAT_ID,OBJECT_NAME,OBJECT_TYPE,EPOCH,MEAN_MOTION,ECCENTRICITY,INCLINATION,RA_OF_ASC_NODE,ARG_OF_PERICENTER,MEAN_ANOMALY,BSTAR,MEAN_MOTION_DOT,MEAN_MOTION_DDOT,TLE_LINE0,TLE_LINE1,TLE_LINE2,SEMIMAJOR_AXIS,PERIOD,APOGEE,PERIGEE,DECAYED
53595.0,STARLINK-4684,PAYLOAD,2023-10-28 13:47:44,15.08830685,0.0001791,53.2144,158.8065,78.2089,281.9104,-7.4245e-05,-1.469e-05,0.0,0 STARLINK-4684,1 53595U 22104H   23301.57481554 -.00001469  00000-0 -74245-4 0  9992,2 53595  53.2144 158.8065 0001791  78.2089 281.9104 15.08830685 65643,6917.909,95.438,541.013,538.535,0.0
53595.0,STARLINK-4684,PAYLOAD,2023-10-28 20:09:16,15.08830111,0.000206,53.2167,157.6197,98.7744,261.3481,0.00021253,3.095e-05,0.0,0 STARLINK-4684,1 53595U 22104H   23301.83977709  .00003095  00000-0  21253-3 0  9998,2 53595  53.2167 157.6197 0002060  98.7744 261.3481 15.08830111 65077,6917.911,95.438,541.201,538.351,0.0
53595.0,STARLINK-4684,PAYLOAD,2023-10-28 21:44:39,15.08835392,0.0001582,53.2153,157.3218,93.2018,266.9155,0.00027879,4.151e-05,0.0,0 STARLINK-4684,1 53595U 22104H   23301.90601643  .00004151  00000-0  27879-3 0  9991,2 53595  53.2153 157.3218 0001582  93.2018 266.9155 15.08835392 65698,6917.894,95.438,540.854,538.665,0.0
53595.0,STARLINK-4684,PAYLOAD,2023-10-29 07:16:58,15.08838874,0.0001537,53.2153,155.5379,95.0846,265.0322,0.00070891,0.00011012,0.0,0 STARLINK-4684,1 53595U 22104H   23302.30345926  .00011012  00000-0  70891-3 0  9991,2 53595  53.2153 155.5379 0001537  95.0846 265.0322 15.08838874 65756,6917.884,95.438,540.812,538.686,0.0
53595.0,STARLINK-4684,PAYLOAD,2023-10-29 21:35:26,15.08852314,0.0001469,53.2148,152.8615,93.2719,266.8441,0.0007671,0.00011946,0.0,0 STARLINK-4684,1 53595U 22104H   23302.89961694  .00011946  00000-0  76710-3 0  9993,2 53595  53.2148 152.8615 0001469  93.2719 266.8441 15.08852314 65842,6917.843,95.437,540.724,538.692,0.0
53595.0,STARLINK-4684,PAYLOAD,2023-10-30 00:46:13,15.08858456,0.0001442,53.2142,152.2662,91.8182,268.2975,0.00087562,0.00013682,0.0,0 STARLINK-4684,1 53595U 22104H   23303.03209497  .00013682  00000-0  87562-3 0  9992,2 53595  53.2142 152.2662 0001442  91.8182 268.2975 15.08858456 65257,6917.824,95.436,540.687,538.691,0.0
53595.0,STARLINK-4684,PAYLOAD,2023-10-30 13:29:18,15.08851093,0.0002925,53.2144,149.8872,71.3003,288.8306,0.00060623,9.376e-05,0.0,0 STARLINK-4684,1 53595U 22104H   23303.56202086  .00009376  00000-0  60623-3 0  9991,2 53595  53.2144 149.8872 0002925  71.3003 288.8306 15.08851093 65331,6917.846,95.437,541.735,537.688,0.0
53595.0,STARLINK-4684,PAYLOAD,2023-10-30 21:26:14,15.08840264,0.000138,53.2145,148.4002,87.5175,272.5975,0.00024766,3.656e-05,0.0,0 STARLINK-4684,1 53595U 22104H   23303.89321906  .00003656  00000-0  24766-3 0  9993,2 53595  53.2145 148.4002 0001380  87.5175 272.5975 15.08840264 65997,6917.88,95.438,540.699,538.79,0.0
53595.0,STARLINK-4684,PAYLOAD,2023-10-31 06:58:33,15.08838728,0.0001421,53.2144,146.616,83.2973,276.818,0.00036273,5.489e-05,0.0,0 STARLINK-4684,1 53595U 22104H   23304.29066094  .00005489  00000-0  36273-3 0  9994,2 53595  53.2144 146.6160 0001421  83.2973 276.8180 15.08838728 66051,6917.884,95.438,540.732,538.766,0.0
53595.0,STARLINK-4684,PAYLOAD,2023-10-31 19:41:38,15.08846621,0.0001383,53.2142,144.2364,83.9508,276.1642,0.00045625,6.982e-05,0.0,0 STARLINK-4684,1 53595U 22104H   23304.82057975  .00006982  00000-0  45625-3 0  9991,2 53595  53.2142 144.2364 0001383  83.9508 276.1642 15.08846621 66133,6917.86,95.437,540.682,538.768,0.0
53595.0,STARLINK-4684,PAYLOAD,2023-10-31 22:52:24,15.08848966,0.0001397,53.2145,143.6415,84.441,275.6741,0.00050015,7.683e-05,0.0,0 STARLINK-4684,1 53595U 22104H   23304.95305899  .00007683  00000-0  50015-3 0  9994,2 53595  53.2145 143.6415 0001397  84.4410 275.6741 15.08848966 65541,6917.853,95.437,540.684,538.752,0.0
53595.0,STARLINK-4684,PAYLOAD,2023-11-01 19:32:25,15.08845457,0.0001669,53.2161,139.7731,89.6037,270.5146,0.00016482,2.336e-05,0.0,0 STARLINK-4684,1 53595U 22104H   23305.81417863  .00002336  00000-0  16482-3 0  9995,2 53595  53.2161 139.7731 0001669  89.6037 270.5146 15.08845457 65679,6917.864,95.437,540.883,538.574,0.0
53595.0,STARLINK-4684,PAYLOAD,2023-11-02 06:40:06,15.08845006,0.0001414,53.2152,137.6915,90.9453,269.1701,0.00016213,2.294e-05,0.0,0 STARLINK-4684,1 53595U 22104H   23306.27785782  .00002294  00000-0  16213-3 0  9999,2 53595  53.2152 137.6915 0001414  90.9453 269.1701 15.08845006 66352,6917.865,95.437,540.708,538.752,0.0
53595.0,STARLINK-4684,PAYLOAD,2023-11-02 19:23:12,15.08841074,0.0001566,53.2167,135.3137,96.65,263.4671,3.6214e-05,2.88e-06,0.0,0 STARLINK-4684,1 53595U 22104H   23306.80777974  .00000288  00000-0  36214-4 0  9997,2 53595  53.2167 135.3137 0001566  96.6500 263.4671 15.08841074 65828,6917.877,95.437,540.825,538.659,0.0
53595.0,STARLINK-4684,PAYLOAD,2023-11-03 03:20:08,15.08834613,0.0001533,53.2178,133.8273,85.1032,275.0135,-4.0243e-05,-9.28e-06,0.0,0 STARLINK-4684,1 53595U 22104H   23307.13898605 -.00000928  00000-0 -40243-4 0  9999,2 53595  53.2178 133.8273 0001533  85.1032 275.0135 15.08834613 65871,6917.897,95.438,540.822,538.701,0.0
53595.0,STARLINK-4684,PAYLOAD,2023-11-03 12:52:27,15.08835773,0.0001324,53.2171,132.0443,96.9739,263.1404,2.0396e-05,3.7e-07,0.0,0 STARLINK-4684,1 53595U 22104H   23307.53642422  .00000037  00000-0  20396-4 0  9993,2 53595  53.2171 132.0443 0001324  96.9739 263.1404 15.08835773 66546,6917.893,95.438,540.674,538.842,0.0
53595.0,STARLINK-4684,PAYLOAD,2023-11-03 20:49:22,15.08840667,0.0001368,53.2169,130.558,95.2441,264.8707,7.145e-05,8.49e-06,0.0,0 STARLINK-4684,1 53595U 22104H   23307.86762119  .00000849  00000-0  71450-4 0  9993,2 53595  53.2169 130.5580 0001368  95.2441 264.8707 15.08840667 65987,6917.878,95.438,540.69,538.797,0.0
53595.0,STARLINK-4684,PAYLOAD,2023-11-03 22:24:45,15.08841041,0.0001401,53.2168,130.2603,96.6027,263.5125,9.1034e-05,1.161e-05,0.0,0 STARLINK-4684,1 53595U 22104H   23307.93386062  .00001161  00000-0  91034-4 0  9998,2 53595  53.2168 130.2603 0001401  96.6027 263.5125 15.08841041 66609,6917.877,95.437,540.711,538.773,0.0
53595.0,STARLINK-4684,PAYLOAD,2023-11-04 04:46:18,15.08840294,0.0001396,53.2161,129.0706,94.4277,265.6875,7.842e-05,9.6e-06,0.0,0 STARLINK-4684,1 53595U 22104H   23308.19882133  .00000960  00000-0  78420-4 0  9997,2 53595  53.2161 129.0706 0001396  94.4277 265.6875 15.08840294 66646,6917.879,95.438,540.71,538.779,0.0
53595.0,STARLINK-4684,PAYLOAD,2023-11-04 19:04:46,15.08845879,0.0001353,53.2162,126.3947,93.9039,266.2108,0.00020023,2.901e-05,0.0,0 STARLINK-4684,1 53595U 22104H   23308.79497925  .00002901  00000-0  20023-3 0  9996,2 53595  53.2162 126.3947 0001353  93.9039 266.2108 15.08845879 66737,6917.862,95.437,540.663,538.791,0.0
53595.0,STARLINK-4684,PAYLOAD,2023-11-05 04:37:04,15.08846685,0.0001318,53.216,124.6105,92.9292,267.1851,0.00015958,2.253e-05,0.0,0 STARLINK-4684,1 53595U 22104H   23309.19241873  .00002253  00000-0  15958-3 0  9991,2 53595  53.2160 124.6105 0001318  92.9292 267.1851 15.08846685 66183,6917.86,95.437,540.637,538.813,0.0
53595.0,STARLINK-4684,PAYLOAD,2023-11-05 10:58:37,15.0884546,0.0001331,53.2161,123.4213,94.0335,266.081,0.00016246,2.299e-05,0.0,0 STARLINK-4684,1 53595U 22104H   23309.45737867  .00002299  00000-0  16246-3 0  9994,2 53595  53.2161 123.4213 0001331  94.0335 266.0810 15.08845460 66832,6917.864,95.437,540.649,538.808,0.0
53595.0,STARLINK-4684,PAYLOAD,2023-11-05 18:55:32,15.08849863,0.0001276,53.2157,121.9345,94.1474,265.9664,0.00021225,3.093e-05,0.0,0 STARLINK-4684,1 53595U 22104H   23309.78857530  .00003093  00000-0  21225-3 0  9996,2 53595  53.2157 121.9345 0001276  94.1474 265.9664 15.08849863 66880,6917.85,95.437,540.598,538.833,0.0
53595.0,STARLINK-4684,PAYLOAD,2023-11-06 10:49:24,15.08848272,0.0001754,53.2166,118.9625,91.1824,268.9369,0.00030091,4.505e-05,0.0,0 STARLINK-4684,1 53595U 22104H   23310.45097509  .00004505  00000-0  30091-3 0  9994,2 53595  53.2166 118.9625 0001754  91.1824 268.9369 15.08848272 66376,6917.855,95.437,540.933,538.507,0.0
53595.0,STARLINK-4684,PAYLOAD,2023-11-06 18:46:19,15.08847641,0.0001478,53.2175,117.4742,84.9218,275.1943,4.4399e-05,4.19e-06,0.0,0 STARLINK-4684,1 53595U 22104H   23310.78217246  .00000419  00000-0  44399-4 0  9999,2 53595  53.2175 117.4742 0001478  84.9218 275.1943 15.08847641 67031,6917.857,95.437,540.744,538.7,0.0
53595.0,STARLINK-4684,PAYLOAD,2023-11-07 18:37:07,15.0882938,0.0001457,53.2165,113.0121,78.5541,281.5615,-0.0001439,-2.577e-05,0.0,0 STARLINK-4684,1 53595U 22104H   23311.77578676 -.00002577  00000-0 -14390-3 0  9992,2 53595  53.2165 113.0121 0001457  78.5541 281.5615 15.08829380 66573,6917.913,95.438,540.786,538.77,0.0
53595.0,STARLINK-4684,PAYLOAD,2023-11-08 10:30:59,15.08833018,0.0001418,53.2169,110.0405,82.5943,277.521,9.4546e-05,1.217e-05,0.0,0 STARLINK-4684,1 53595U 22104H   23312.43818977  .00001217  00000-0  94546-4 0  9997,2 53595  53.2169 110.0405 0001418  82.5943 277.5210 15.08833018 67285,6917.902,95.438,540.748,538.786,0.0
53595.0,STARLINK-4684,PAYLOAD,2023-11-08 16:52:32,15.08837674,0.0001347,53.2162,108.8511,82.7525,277.3621,0.00016405,2.324e-05,0.0,0 STARLINK-4684,1 53595U 22104H   23312.70314823  .00002324  00000-0  16405-3 0  9995,2 53595  53.2162 108.8511 0001347  82.7525 277.3621 15.08837674 66713,6917.887,95.438,540.684,538.821,0.0
53595.0,STARLINK-4684,PAYLOAD,2023-11-09 13:32:32,15.08842136,0.0001574,53.2165,104.9847,88.2212,271.8961,0.00025557,3.782e-05,0.0,0 STARLINK-4684,1 53595U 22104H   23313.56426873  .00003782  00000-0  25557-3 0  9996,2 53595  53.2165 104.9847 0001574  88.2212 271.8961 15.08842136 67458,6917.874,95.437,540.828,538.65,0.0
53595.0,STARLINK-4684,PAYLOAD,2023-11-09 16:43:18,15.08842547,0.000152,53.2181,104.3899,86.2322,273.8844,0.00021637,3.157e-05,0.0,0 STARLINK-4684,1 53595U 22104H   23313.69674498  .00003157  00000-0  21637-3 0  9999,2 53595  53.2181 104.3899 0001520  86.2322 273.8844 15.08842547 67478,6917.873,95.437,540.789,538.686,0.0
